{
  "type": "FeatureCollection",
  "features": [
    {
      "type": "Feature",
      "properties": {
        "norad_id": 41948,
        "name": "CARTOSAT-2D",
        "group": "resource",
        "lat": -27.328697153146027,
        "lon": 57.922239259668736,
        "alt_km": 517.1375081794686,
        "timestamp": "2025-12-22T16:55:17.107649+00:00",
        "meta_object_name": "CARTOSAT-2D",
        "meta_object_id": "2017-008A",
        "meta_epoch": "2025-12-22T07:33:31.837248",
        "meta_mean_motion": 15.19344407,
        "meta_eccentricity": 0.00053413,
        "meta_inclination": 97.4375,
        "meta_ra_of_asc_node": 53.6672,
        "meta_arg_of_pericenter": 134.7698,
        "meta_mean_anomaly": 225.3972,
        "meta_ephemeris_type": 0,
        "meta_classification_type": "U",
        "meta_norad_cat_id": 41948,
        "meta_element_set_no": 999,
        "meta_rev_at_epoch": 49072,
        "meta_bstar": 0.00020200941,
        "meta_mean_motion_dot": 4.202e-05,
        "meta_mean_motion_ddot": 0,
        "tle_line1": "1 41948U 17008A   25356.31495182  .00004202  00000+0  20201-3 0  9991",
        "tle_line2": "2 41948  97.4375  53.6672 0005341 134.7698 225.3972 15.19344407490723"
      },
      "geometry": {
        "type": "Point",
        "coordinates": [
          57.922239259668736,
          -27.328697153146027
        ]
      }
    },
    {
      "type": "Feature",
      "properties": {
        "norad_id": 42063,
        "name": "SENTINEL-2B",
        "group": "resource",
        "lat": 5.388270348088223,
        "lon": 68.19618504324642,
        "alt_km": 791.1593491494586,
        "timestamp": "2025-12-22T16:55:17.107659+00:00",
        "meta_object_name": "SENTINEL-2B",
        "meta_object_id": "2017-013A",
        "meta_epoch": "2025-12-22T06:49:33.820608",
        "meta_mean_motion": 14.30813446,
        "meta_eccentricity": 0.0001172,
        "meta_inclination": 98.571,
        "meta_ra_of_asc_node": 68.5966,
        "meta_arg_of_pericenter": 92.8508,
        "meta_mean_anomaly": 267.2809,
        "meta_ephemeris_type": 0,
        "meta_classification_type": "U",
        "meta_norad_cat_id": 42063,
        "meta_element_set_no": 999,
        "meta_rev_at_epoch": 45934,
        "meta_bstar": -2.5297407e-05,
        "meta_mean_motion_dot": -1.1e-06,
        "meta_mean_motion_ddot": 0,
        "tle_line1": "1 42063U 17013A   25356.28441922 -.00000110  00000+0 -25297-4 0  9992",
        "tle_line2": "2 42063  98.5710  68.5966 0001172  92.8508 267.2809 14.30813446459343"
      },
      "geometry": {
        "type": "Point",
        "coordinates": [
          68.19618504324642,
          5.388270348088223
        ]
      }
    },
    {
      "type": "Feature",
      "properties": {
        "norad_id": 42767,
        "name": "CARTOSAT-2E",
        "group": "resource",
        "lat": -60.43886314545448,
        "lon": -139.18484139943797,
        "alt_km": 514.0199070914123,
        "timestamp": "2025-12-22T16:55:17.107669+00:00",
        "meta_object_name": "CARTOSAT-2E",
        "meta_object_id": "2017-036C",
        "meta_epoch": "2025-12-22T06:22:42.774240",
        "meta_mean_motion": 15.19281488,
        "meta_eccentricity": 0.00026635,
        "meta_inclination": 97.4542,
        "meta_ra_of_asc_node": 53.7284,
        "meta_arg_of_pericenter": 192.2956,
        "meta_mean_anomaly": 167.8214,
        "meta_ephemeris_type": 0,
        "meta_classification_type": "U",
        "meta_norad_cat_id": 42767,
        "meta_element_set_no": 999,
        "meta_rev_at_epoch": 47128,
        "meta_bstar": 0.00010848123,
        "meta_mean_motion_dot": 2.22e-05,
        "meta_mean_motion_ddot": 0,
        "tle_line1": "1 42767U 17036C   25356.26577285  .00002220  00000+0  10848-3 0  9995",
        "tle_line2": "2 42767  97.4542  53.7284 0002663 192.2956 167.8214 15.19281488471287"
      },
      "geometry": {
        "type": "Point",
        "coordinates": [
          -139.18484139943797,
          -60.43886314545448
        ]
      }
    },
    {
      "type": "Feature",
      "properties": {
        "norad_id": 42920,
        "name": "FORMOSAT-5",
        "group": "resource",
        "lat": 5.195281938385596,
        "lon": 70.06821548794389,
        "alt_km": 726.3454138612869,
        "timestamp": "2025-12-22T16:55:17.107679+00:00",
        "meta_object_name": "FORMOSAT-5",
        "meta_object_id": "2017-049A",
        "meta_epoch": "2025-12-22T06:57:56.364480",
        "meta_mean_motion": 14.5076583,
        "meta_eccentricity": 0.00098233,
        "meta_inclination": 98.2441,
        "meta_ra_of_asc_node": 70.4172,
        "meta_arg_of_pericenter": 268.9285,
        "meta_mean_anomaly": 91.0784,
        "meta_ephemeris_type": 0,
        "meta_classification_type": "U",
        "meta_norad_cat_id": 42920,
        "meta_element_set_no": 999,
        "meta_rev_at_epoch": 44102,
        "meta_bstar": 6.2910208e-05,
        "meta_mean_motion_dot": 2.04e-06,
        "meta_mean_motion_ddot": 0,
        "tle_line1": "1 42920U 17049A   25356.29023570  .00000204  00000+0  62910-4 0  9994",
        "tle_line2": "2 42920  98.2441  70.4172 0009823 268.9285  91.0784 14.50765830441029"
      },
      "geometry": {
        "type": "Point",
        "coordinates": [
          70.06821548794389,
          5.195281938385596
        ]
      }
    },
    {
      "type": "Feature",
      "properties": {
        "norad_id": 42969,
        "name": "SENTINEL-5P",
        "group": "resource",
        "lat": -1.5113416843866196,
        "lon": -64.56510681470017,
        "alt_km": 830.1023074321283,
        "timestamp": "2025-12-22T16:55:17.107690+00:00",
        "meta_object_name": "SENTINEL-5P",
        "meta_object_id": "2017-064A",
        "meta_epoch": "2025-12-22T06:46:43.044960",
        "meta_mean_motion": 14.19519783,
        "meta_eccentricity": 0.00010231,
        "meta_inclination": 98.7799,
        "meta_ra_of_asc_node": 294.7824,
        "meta_arg_of_pericenter": 91.2529,
        "meta_mean_anomaly": 268.8764,
        "meta_ephemeris_type": 0,
        "meta_classification_type": "U",
        "meta_norad_cat_id": 42969,
        "meta_element_set_no": 999,
        "meta_rev_at_epoch": 42446,
        "meta_bstar": 5.6019005e-05,
        "meta_mean_motion_dot": 7.4e-07,
        "meta_mean_motion_ddot": 0,
        "tle_line1": "1 42969U 17064A   25356.28244265  .00000074  00000+0  56019-4 0  9997",
        "tle_line2": "2 42969  98.7799 294.7824 0001023  91.2529 268.8764 14.19519783424460"
      },
      "geometry": {
        "type": "Point",
        "coordinates": [
          -64.56510681470017,
          -1.5113416843866196
        ]
      }
    },
    {
      "type": "Feature",
      "properties": {
        "norad_id": 42987,
        "name": "SKYSAT-C11",
        "group": "resource",
        "lat": 21.04712828787276,
        "lon": 131.57368402343823,
        "alt_km": 422.8353905942977,
        "timestamp": "2025-12-22T16:55:17.107700+00:00",
        "meta_object_name": "SKYSAT-C11",
        "meta_object_id": "2017-068A",
        "meta_epoch": "2025-12-22T04:25:02.759808",
        "meta_mean_motion": 15.47824595,
        "meta_eccentricity": 0.00011684,
        "meta_inclination": 97.4148,
        "meta_ra_of_asc_node": 133.9121,
        "meta_arg_of_pericenter": 98.1662,
        "meta_mean_anomaly": 261.9721,
        "meta_ephemeris_type": 0,
        "meta_classification_type": "U",
        "meta_norad_cat_id": 42987,
        "meta_element_set_no": 999,
        "meta_rev_at_epoch": 45577,
        "meta_bstar": 0.00046224334,
        "meta_mean_motion_dot": 0.00023957,
        "meta_mean_motion_ddot": 0,
        "tle_line1": "1 42987U 17068A   25356.18405972  .00023957  00000+0  46224-3 0  9995",
        "tle_line2": "2 42987  97.4148 133.9121 0001168  98.1662 261.9721 15.47824595455779"
      },
      "geometry": {
        "type": "Point",
        "coordinates": [
          131.57368402343823,
          21.04712828787276
        ]
      }
    },
    {
      "type": "Feature",
      "properties": {
        "norad_id": 42988,
        "name": "SKYSAT-C10",
        "group": "resource",
        "lat": -82.03444003269887,
        "lon": -121.19616936649713,
        "alt_km": 480.05225048586726,
        "timestamp": "2025-12-22T16:55:17.107710+00:00",
        "meta_object_name": "SKYSAT-C10",
        "meta_object_id": "2017-068B",
        "meta_epoch": "2025-12-22T06:21:18.916992",
        "meta_mean_motion": 15.32252627,
        "meta_eccentricity": 0.00053853,
        "meta_inclination": 97.4266,
        "meta_ra_of_asc_node": 127.1433,
        "meta_arg_of_pericenter": 77.6447,
        "meta_mean_anomaly": 282.5397,
        "meta_ephemeris_type": 0,
        "meta_classification_type": "U",
        "meta_norad_cat_id": 42988,
        "meta_element_set_no": 999,
        "meta_rev_at_epoch": 45525,
        "meta_bstar": 0.00037811069,
        "meta_mean_motion_dot": 0.00011706,
        "meta_mean_motion_ddot": 0,
        "tle_line1": "1 42988U 17068B   25356.26480228  .00011706  00000+0  37811-3 0  9993",
        "tle_line2": "2 42988  97.4266 127.1433 0005385  77.6447 282.5397 15.32252627455256"
      },
      "geometry": {
        "type": "Point",
        "coordinates": [
          -121.19616936649713,
          -82.03444003269887
        ]
      }
    }
  ]
}